CCSDS_OMM_VERS,COMMENT,CREATION_DATE,ORIGINATOR,OBJECT_NAME,OBJECT_ID,CENTER_NAME,REF_FRAME,TIME_SYSTEM,MEAN_ELEMENT_THEORY,EPOCH,MEAN_MOTION,ECCENTRICITY,INCLINATION,RA_OF_ASC_NODE,ARG_OF_PERICENTER,MEAN_ANOMALY,EPHEMERIS_TYPE,CLASSIFICATION_TYPE,NORAD_CAT_ID,ELEMENT_SET_NO,REV_AT_EPOCH,BSTAR,MEAN_MOTION_DOT,MEAN_MOTION_DDOT,SEMIMAJOR_AXIS,PERIOD,APOAPSIS,PERIAPSIS,OBJECT_TYPE,RCS_SIZE,COUNTRY_CODE,LAUNCH_DATE,SITE,DECAY_DATE,FILE,GP_ID,TLE_LINE0,TLE_LINE1,TLE_LINE2
"2.0","GENERATED VIA SPACE-TRACK.ORG API","2020-11-22T22:36:10","18 SPCS","STARLINK-1694","2020-070N","EARTH","TEME","UTC","SGP4","2020-11-22T22:00:00.999936","15.62871639","0.00011690","52.9985","209.3442","72.7876","46.5100","0","U","46544","999","825","-0.00185530000000","-0.00167729","0.0000000000000","6757.503","92.138","380.158","378.578","PAYLOAD","","US","2020-10-06","AFETR","","2884856","166087792","0 STARLINK-1694","1 46544U 20070N   20327.91667824 -.00167729  00000-0 -18553-2 0  9997","2 46544  52.9985 209.3442 0001169  72.7876  46.5100 15.62871639  8250"
"2.0","GENERATED VIA SPACE-TRACK.ORG API","2020-11-23T06:46:09","18 SPCS","STARLINK-1694","2020-070N","EARTH","TEME","UTC","SGP4","2020-11-23T06:00:02.000160","15.63388554","0.00014850","52.9984","207.7123","69.4081","126.3033","0","U","46544","999","830","-0.02039200000000","-0.01685625","0.0000000000000","6756.014","92.107","378.882","376.875","PAYLOAD","","US","2020-10-06","AFETR","","2885369","166119768","0 STARLINK-1694","1 46544U 20070N   20328.25002315 -.01685625  00000-0 -20392-1 0  9997","2 46544  52.9984 207.7123 0001485  69.4081 126.3033 15.63388554  8307"
"2.0","GENERATED VIA SPACE-TRACK.ORG API","2020-11-23T14:36:10","18 SPCS","STARLINK-1694","2020-070N","EARTH","TEME","UTC","SGP4","2020-11-23T14:00:01.000224","15.62669288","0.00010770","52.9990","206.0773","74.6632","197.6238","0","U","46544","999","836","0.00001893600000","0.00001195","0.0000000000000","6758.087","92.150","380.680","379.224","PAYLOAD","","US","2020-10-06","AFETR","","2885742","166127877","0 STARLINK-1694","1 46544U 20070N   20328.58334491  .00001195  00000-0  18936-4 0  9991","2 46544  52.9990 206.0773 0001077  74.6632 197.6238 15.62669288  8363"
"2.0","GENERATED VIA SPACE-TRACK.ORG API","2020-11-24T01:16:40","18 SPCS","STARLINK-1694","2020-070N","EARTH","TEME","UTC","SGP4","2020-11-23T22:00:01.999584","15.62681203","0.00012520","52.9993","204.4472","68.3085","280.3417","0","U","46544","999","184","-0.00046463000000","-0.00042735","0.0000000000000","6758.052","92.149","380.763","379.071","PAYLOAD","","US","2020-10-06","AFETR","","2886385","166176859","0 STARLINK-1694","1 46544U 20070N   20328.91668981 -.00042735 +00000-0 -46463-3 0  9994","2 46544 052.9993 204.4472 0001252 068.3085 280.3417 15.62681203001847"
"2.0","GENERATED VIA SPACE-TRACK.ORG API","2020-11-24T06:26:10","18 SPCS","STARLINK-1694","2020-070N","EARTH","TEME","UTC","SGP4","2020-11-24T04:00:03.000096","15.62624203","0.00012440","52.9987","203.2234","58.6350","257.2396","0","U","46544","999","845","-0.00035195000000","-0.00032469","0.0000000000000","6758.217","92.152","380.922","379.241","PAYLOAD","","US","2020-10-06","AFETR","","2886574","166182677","0 STARLINK-1694","1 46544U 20070N   20329.16670139 -.00032469  00000-0 -35195-3 0  9993","2 46544  52.9987 203.2234 0001244  58.6350 257.2396 15.62624203  8451"
"2.0","GENERATED VIA SPACE-TRACK.ORG API","2020-11-24T16:43:02","18 SPCS","STARLINK-1694","2020-070N","EARTH","TEME","UTC","SGP4","2020-11-24T06:00:02.000160","15.62646904","0.00012730","52.9985","202.8149","60.9524","3.9094","0","U","46544","999","182","-0.00105910000000","-0.00095975","0.0000000000000","6758.151","92.151","380.877","379.156","PAYLOAD","","US","2020-10-06","AFETR","","2887188","166216466","0 STARLINK-1694","1 46544U 20070N   20329.25002315 -.00095975 +00000-0 -10591-2 0  9991","2 46544 052.9985 202.8149 0001273 060.9524 003.9094 15.62646904001827"
"2.0","GENERATED VIA SPACE-TRACK.ORG API","2020-11-24T22:26:10","18 SPCS","STARLINK-1694","2020-070N","EARTH","TEME","UTC","SGP4","2020-11-24T22:00:01.999584","15.62598466","0.00012280","52.9988","199.5517","64.7699","152.4822","0","U","46544","999","857","0.00151950000000","0.00140174","0.0000000000000","6758.291","92.154","380.986","379.326","PAYLOAD","","US","2020-10-06","AFETR","","2887467","166221894","0 STARLINK-1694","1 46544U 20070N   20329.91668981  .00140174  00000-0  15195-2 0  9996","2 46544  52.9988 199.5517 0001228  64.7699 152.4822 15.62598466  8573"
"2.0","GENERATED VIA SPACE-TRACK.ORG API","2020-11-25T06:36:10","18 SPCS","STARLINK-1694","2020-070N","EARTH","TEME","UTC","SGP4","2020-11-25T06:00:02.000160","15.62764498","0.00013510","52.9987","197.9187","63.6895","230.0271","0","U","46544","999","862","0.00022954000000","0.00020546","0.0000000000000","6757.812","92.144","380.590","378.764","PAYLOAD","","US","2020-10-06","AFETR","","2888153","166252469","0 STARLINK-1694","1 46544U 20070N   20330.25002315  .00020546  00000-0  22954-3 0  9990","2 46544  52.9987 197.9187 0001351  63.6895 230.0271 15.62764498  8627"
"2.0","GENERATED VIA SPACE-TRACK.ORG API","2020-11-25T17:37:42","18 SPCS","STARLINK-1694","2020-070N","EARTH","TEME","UTC","SGP4","2020-11-25T14:00:01.999872","15.62789457","0.00014810","52.9987","196.2838","75.7199","294.4216","0","U","46544","999","187","-0.00058653000000","-0.00053962","0.0000000000000","6757.740","92.142","380.606","378.604","PAYLOAD","","US","2020-10-06","AFETR","","2888711","166284875","0 STARLINK-1694","1 46544U 20070N   20330.58335648 -.00053962 +00000-0 -58653-3 0  9999","2 46544 052.9987 196.2838 0001481 075.7199 294.4216 15.62789457001872"
"2.0","GENERATED VIA SPACE-TRACK.ORG API","2020-11-25T22:36:10","18 SPCS","STARLINK-1694","2020-070N","EARTH","TEME","UTC","SGP4","2020-11-25T22:00:00.999936","15.62766324","0.00016300","52.9990","194.6546","66.2610","20.2145","0","U","46544","999","872","-0.00083605000000","-0.00076413","0.0000000000000","6757.807","92.144","380.773","378.570","PAYLOAD","","US","2020-10-06","AFETR","","2889068","166293180","0 STARLINK-1694","1 46544U 20070N   20330.91667824 -.00076413  00000-0 -83605-3 0  9991","2 46544  52.9990 194.6546 0001630  66.2610  20.2145 15.62766324  8728"
"2.0","GENERATED VIA SPACE-TRACK.ORG API","2020-11-26T12:26:10","18 SPCS","STARLINK-1694","2020-070N","EARTH","TEME","UTC","SGP4","2020-11-26T10:00:03.999744","15.62739900","0.00012650","52.9991","192.2044","66.0614","315.1985","0","U","46544","999","880","0.00016343000000","0.00014449","0.0000000000000","6757.883","92.145","380.603","378.893","PAYLOAD","","US","2020-10-06","AFETR","","2890018","166349592","0 STARLINK-1694","1 46544U 20070N   20331.41671296  .00014449  00000-0  16343-3 0  9999","2 46544  52.9991 192.2044 0001265  66.0614 315.1985 15.62739900  8809"
"2.0","GENERATED VIA SPACE-TRACK.ORG API","2020-11-26T20:45:39","18 SPCS","STARLINK-1694","2020-070N","EARTH","TEME","UTC","SGP4","2020-11-26T14:00:01.000224","15.62755403","0.00012230","52.9989","191.3881","68.6384","170.6177","0","U","46544","999","178","-0.00014756000000","-0.00014023","0.0000000000000","6757.838","92.144","380.530","378.877","PAYLOAD","","US","2020-10-06","AFETR","","2890085","166370878","0 STARLINK-1694","1 46544U 20070N   20331.58334491 -.00014023 +00000-0 -14756-3 0  9996","2 46544 052.9989 191.3881 0001223 068.6384 170.6177 15.62755403001784"
"2.0","GENERATED VIA SPACE-TRACK.ORG API","2020-11-27T04:57:55","18 SPCS","STARLINK-1694","2020-070N","EARTH","TEME","UTC","SGP4","2020-11-26T22:00:01.999584","15.62929492","0.00010910","52.9992","189.7561","60.1164","255.5670","0","U","46544","999","183","-0.00586710000000","-0.00508917","0.0000000000000","6757.337","92.134","379.939","378.464","PAYLOAD","","US","2020-10-06","AFETR","","2890601","166424056","0 STARLINK-1694","1 46544U 20070N   20331.91668981 -.00508917 +00000-0 -58671-2 0  9990","2 46544 052.9992 189.7561 0001091 060.1164 255.5670 15.62929492001838"
"2.0","GENERATED VIA SPACE-TRACK.ORG API","2020-11-27T06:36:10","18 SPCS","STARLINK-1694","2020-070N","EARTH","TEME","UTC","SGP4","2020-11-27T06:00:02.000160","15.62856127","0.00013800","52.9982","188.1250","55.2474","336.8938","0","U","46544","999","893","-0.00541910000000","-0.00470941","0.0000000000000","6757.548","92.138","380.346","378.481","PAYLOAD","","US","2020-10-06","AFETR","","2890928","166432080","0 STARLINK-1694","1 46544U 20070N   20332.25002315 -.00470941  00000-0 -54191-2 0  9999","2 46544  52.9982 188.1250 0001380  55.2474 336.8938 15.62856127  8937"
"2.0","GENERATED VIA SPACE-TRACK.ORG API","2020-11-27T14:36:10","18 SPCS","STARLINK-1694","2020-070N","EARTH","TEME","UTC","SGP4","2020-11-27T12:00:00.999648","15.62812437","0.00015230","52.9989","186.8990","67.4753","292.1744","0","U","46544","999","897","-0.00103850000000","-0.00094745","0.0000000000000","6757.674","92.141","380.568","378.510","PAYLOAD","","US","2020-10-06","AFETR","","2891273","166440409","0 STARLINK-1694","1 46544U 20070N   20332.50001157 -.00094745  00000-0 -10385-2 0  9991","2 46544  52.9989 186.8990 0001523  67.4753 292.1744 15.62812437  8973"
"2.0","GENERATED VIA SPACE-TRACK.ORG API","2020-11-27T20:30:34","18 SPCS","STARLINK-1694","2020-070N","EARTH","TEME","UTC","SGP4","2020-11-27T14:00:01.000224","15.63317974","0.00016950","52.9992","186.4909","53.9401","54.7146","0","U","46544","999","180","-0.01625000000000","-0.01373281","0.0000000000000","6756.217","92.111","379.227","376.937","PAYLOAD","","US","2020-10-06","AFETR","","2891346","166462085","0 STARLINK-1694","1 46544U 20070N   20332.58334491 -.01373281 +00000-0 -16250-1 0  9991","2 46544 052.9992 186.4909 0001695 053.9401 054.7146 15.63317974001803"
